ONEWEB-0029             
1 45445U 20020X   25293.90291575  .00000534  00000+0  14697-2 0  9995
2 45445  87.8836  68.7128 0001471  99.6760 260.4535 13.11417915271295
ONEWEB-0068             
1 45446U 20020Y   25293.88666788 -.00000025  00000+0 -10766-3 0  9996
2 45446  87.8837  68.7046 0001421 100.6985 259.4303 13.11419375271230
ONEWEB-0046             
1 45447U 20020Z   25293.80202328 -.00000316  00000+0 -92691-3 0  9995
2 45447  87.8834  68.7302 0001375  90.3976 269.7310 13.11419158271237
ONEWEB-0063             
1 45448U 20020AA  25293.83086985  .00000587  00000+0  16199-2 0  9994
2 45448  87.8832  68.7226 0001604  88.2312 271.8999 13.11416169271322
ONEWEB-0019             
1 45449U 20020AB  25293.88087248 -.00000190  00000+0 -57282-3 0  9994
2 45449  87.8828  68.7272 0001582 100.0754 260.0553 13.11417833271175
ONEWEB-0094             
1 45450U 20020AC  25293.85212109  .00000208  00000+0  50284-3 0  9992
2 45450  87.9114  53.4245 0001578 101.5115 258.6193 13.17647831274792
ONEWEB-0087             
1 45451U 20020AD  25293.84089732  .00000378  00000+0  10312-2 0  9991
2 45451  87.8841  68.6739 0001328 104.7822 255.3454 13.11415757271210
ONEWEB-0082             
1 45452U 20020AE  25293.83764691  .00000448  00000+0  12279-2 0  9997
2 45452  87.8842  68.6998 0001419 102.6297 257.4990 13.11415878271305
ONEWEB-0050             
1 45453U 20020AF  25293.69389347  .00219146  00000+0  22144-1 0  9991
2 45453  88.7672 265.9595 0006136  91.6532 268.5400 14.89816196304728
ONEWEB-0034             
1 45454U 20020AG  25293.93512388 -.00000400  00000+0 -11658-2 0  9994
2 45454  87.8833  68.6992 0001568  98.6578 261.4728 13.11416333271235
ONEWEB-0060             
1 45455U 20020AH  25293.90631128  .00000532  00000+0  14638-2 0  9991
2 45455  87.8822  68.7279 0001153 147.7124 212.4074 13.11417944271189
ONEWEB-0086             
1 45456U 20020AJ  25293.88511507 -.00000080  00000+0 -26153-3 0  9993
2 45456  87.8836  68.7057 0001780 122.8172 237.3128 13.11419258271245
ONEWEB-0088             
1 45457U 20020AK  25293.86308311 -.00000500  00000+0 -14458-2 0  9990
2 45457  87.8843  68.6601 0001474  95.5205 264.6092 13.11415041271172
ONEWEB-0102             
1 47258U 20100A   25293.82632226  .00000493  00000+0  13350-2 0  9990
2 47258  87.8964  38.2352 0001845 100.2764 259.8573 13.12443417233334
ONEWEB-0109             
1 47259U 20100B   25293.75819103  .00000217  00000+0  56820-3 0  9998
2 47259  87.8965  38.2164 0001851 102.4980 257.6356 13.12443136233151
ONEWEB-0110             
1 47260U 20100C   25293.78413580 -.00000453  00000+0 -12949-2 0  9999
2 47260  87.8964  38.1952 0001717 110.7776 249.3537 13.12440948233328
ONEWEB-0111             
1 47261U 20100D   25293.81497343  .00000380  00000+0  10206-2 0  9994
2 47261  87.8967  38.2065 0001767 101.5819 258.5508 13.12443864233161
ONEWEB-0114             
1 47262U 20100E   25293.84578118 -.00000210  00000+0 -61904-3 0  9994
2 47262  87.8970  38.1948 0002009  96.5595 263.5762 13.12439675233128
ONEWEB-0117             
1 47263U 20100F   25293.83766774  .00000160  00000+0  41004-3 0  9992
2 47263  87.8964  38.1942 0001675 102.0924 258.0392 13.12443747233137
ONEWEB-0118             
1 47264U 20100G   25293.79386482 -.00000213  00000+0 -62751-3 0  9995
2 47264  87.8965  38.2020 0001829  90.7319 269.4020 13.12441969233328
ONEWEB-0119             
1 47265U 20100H   25293.82145239  .00000478  00000+0  12931-2 0  9998
2 47265  87.8962  38.2334 0001722 102.2828 257.8493 13.12444361233302
ONEWEB-0120             
1 47266U 20100J   25293.84429792 -.00000067  00000+0 -22082-3 0  9995
2 47266  87.8968  38.2310 0001831  98.8063 261.3272 13.12440415233339
ONEWEB-0121             
1 47267U 20100K   25293.75656948  .00000248  00000+0  65528-3 0  9992
2 47267  87.8960  38.2142 0001629 106.4887 253.6420 13.12444318233234
ONEWEB-0122             
1 47268U 20100L   25293.82780550  .00000510  00000+0  13818-2 0  9994
2 47268  87.8963  38.2029 0001792 103.7566 256.3762 13.12442770233157
ONEWEB-0123             
1 47269U 20100M   25293.82308380  .00000506  00000+0  13704-2 0  9991
2 47269  87.8962  38.2312 0001630  96.8975 263.2339 13.12444038233290
ONEWEB-0124             
1 47270U 20100N   25293.81172713  .00000323  00000+0  86348-3 0  9993
2 47270  87.8967  38.2370 0001561 104.3972 255.7331 13.12444261233179
ONEWEB-0125             
1 47271U 20100P   25293.78900022 -.00000508  00000+0 -14469-2 0  9993
2 47271  87.8967  38.2039 0001516  94.6287 265.5015 13.12442107233234
ONEWEB-0126             
1 47272U 20100Q   25293.81024971  .00000313  00000+0  83418-3 0  9991
2 47272  87.8966  38.2230 0001823 100.1711 259.9623 13.12443955233305
ONEWEB-0127             
1 47273U 20100R   25293.85226597 -.00000245  00000+0 -71696-3 0  9995
2 47273  87.8967  38.2254 0001814 102.3927 257.7404 13.12440879233334
ONEWEB-0128             
1 47274U 20100S   25293.79873558 -.00000117  00000+0 -36113-3 0  9997
2 47274  87.8959  38.2574 0001818 109.0958 251.0367 13.12445293233344
ONEWEB-0129             
1 47275U 20100T   25293.85389027 -.00000378  00000+0 -10865-2 0  9992
2 47275  87.8968  38.1940 0002873  95.3554 264.7902 13.12441154233283
ONEWEB-0130             
1 47276U 20100U   25293.80523596  .00000137  00000+0  34514-3 0  9998
2 47276  87.8966  38.2000 0001821 104.2403 255.8928 13.12444531233242
ONEWEB-0131             
1 47277U 20100V   25293.80199392 -.00000009  00000+0 -61159-4 0  9998
2 47277  87.8966  38.2306 0001737 103.9940 256.1382 13.12443908233289
ONEWEB-0132             
1 47278U 20100W   25293.75495146  .00000356  00000+0  95542-3 0  9994
2 47278  87.8962  38.2419 0001684 101.6764 258.4553 13.12443387233175
ONEWEB-0133             
1 47279U 20100X   25293.84726775 -.00000149  00000+0 -44980-3 0  9992
2 47279  87.8955  38.1887 0001666 107.4444 252.6867 13.12443005233345
ONEWEB-0134             
1 47280U 20100Y   25293.81659238  .00000462  00000+0  12481-2 0  9996
2 47280  87.8965  38.1862 0001916 106.9719 253.1620 13.12443890233310
ONEWEB-0135             
1 47281U 20100Z   25293.78738887 -.00000358  00000+0 -10307-2 0  9992
2 47281  87.8964  38.2324 0001942 113.8873 246.2460 13.12444398233332
ONEWEB-0136             
1 47282U 20100AA  25293.80685937  .00000160  00000+0  40830-3 0  9997
2 47282  87.8967  38.1970 0002094 108.2498 251.8859 13.12445496233268
ONEWEB-0137             
1 47283U 20100AB  25293.84091698  .00000212  00000+0  55457-3 0  9996
2 47283  87.8964  38.1960 0001749  93.9240 266.2089 13.12440098233174
ONEWEB-0138             
1 47284U 20100AC  25293.81984059  .00000362  00000+0  97008-3 0  9990
2 47284  87.8965  38.2100 0001956 105.0452 255.0893 13.12442767233256
ONEWEB-0139             
1 47285U 20100AD  25293.78265363 -.00000645  00000+0 -18294-2 0  9992
2 47285  87.8962  38.2070 0001672 102.2233 257.9083 13.12443224233320
ONEWEB-0140             
1 47286U 20100AE  25293.81335061  .00000383  00000+0  10278-2 0  9991
2 47286  87.8966  38.1870 0001843 104.0654 256.0680 13.12443833233294
ONEWEB-0141             
1 47287U 20100AF  25293.85861980  .00000011  00000+0 -36281-5 0  9994
2 47287  87.8960  38.1905 0001769  90.5818 269.5513 13.12438682233285
ONEWEB-0142             
1 47288U 20100AG  25293.84753800 -.00000225  00000+0 -65998-3 0  9998
2 47288  87.8967  38.2125 0001973  92.1753 267.9602 13.12443987233275
ONEWEB-0143             
1 47289U 20100AH  25293.85713528 -.00000413  00000+0 -11836-2 0  9993
2 47289  87.8968  38.2067 0001669 101.7029 258.4287 13.12442649233253
ONEWEB-0144             
1 47290U 20100AJ  25293.82959029  .00000418  00000+0  11260-2 0  9994
2 47290  87.8957  38.1843 0002050 101.1372 258.9988 13.12446542233174
ONEWEB-0145             
1 47291U 20100AK  25293.80036779 -.00000038  00000+0 -14198-3 0  9995
2 47291  87.8967  38.2243 0001796 101.6406 258.4925 13.12444338233368
ONEWEB-0146             
1 47292U 20100AL  25293.79712201 -.00000175  00000+0 -52163-3 0  9991
2 47292  87.8967  38.2118 0001395 107.7707 252.3574 13.12444746233272
ONEWEB-0147             
1 47293U 20100AM  25293.83929575  .00000217  00000+0  56816-3 0  9995
2 47293  87.8963  38.1813 0001897 107.3401 252.7935 13.12440264233179
ONEWEB-0115             
1 48042U 21025A   25293.90188147  .00000338  00000+0  89176-3 0  9994
2 48042  87.9049   7.7653 0001785 100.3809 259.7521 13.13471219222185
ONEWEB-0152             
1 48043U 21025B   25293.91543111 -.00000011  00000+0 -64582-4 0  9997
2 48043  87.9039   7.7747 0001764 103.3215 256.8111 13.13470168222141
ONEWEB-0153             
1 48044U 21025C   25293.74107480  .00000362  00000+0  95547-3 0  9995
2 48044  87.9046   7.8112 0001845  98.6359 261.4980 13.13470200222112
ONEWEB-0154             
1 48045U 21025D   25293.73767567  .00000363  00000+0  95905-3 0  9992
2 48045  87.9046   7.8082 0001840 102.6018 257.5317 13.13471620222074
ONEWEB-0116             
1 48046U 21025E   25293.70043828 -.00000291  00000+0 -83247-3 0  9995
2 48046  87.9048   7.7989 0001712 103.1749 256.9571 13.13470384222214
ONEWEB-0150             
1 48047U 21025F   25293.90527644  .00000198  00000+0  50618-3 0  9991
2 48047  87.9048   7.7532 0001790  93.7859 266.3475 13.13470789222139
ONEWEB-0107             
1 48048U 21025G   25293.90695434 -.00000138  00000+0 -41299-3 0  9996
2 48048  87.9042   7.7508 0002283  97.6687 262.4701 13.13471942222116
ONEWEB-0101             
1 48049U 21025H   25293.71738044 -.00000020  00000+0 -89395-4 0  9991
2 48049  87.9040   7.8246 0001990 102.4623 257.6729 13.13471114222065
ONEWEB-0113             
1 48050U 21025J   25293.90667325 -.00001762  00000+0 -48258-2 0  9992
2 48050  87.9020   7.7265 0001536 104.6423 255.4877 13.13951764222180
ONEWEB-0112             
1 48051U 21025K   25293.91204726  .00000086  00000+0  20018-3 0  9997
2 48051  87.9047   7.7456 0001805  96.5802 263.5532 13.13471281222180
